C/2021 A6 (PANSTARRS),e,75.5977,164.0705,351.6226,8739,0.0000012,0.99909307,0.0000,05/03.0697/2021,2000,g  7.0,4.0
# From MPEC 2022-M88
C/2021 A7 (NEOWISE),e,78.1580,154.4929,355.9957,2036,0.0000107,0.99903465,0.0000,07/15.1590/2021,2000,g 10.0,4.0
# From MPEC 2023-KD6
C/2021 A9 (PANSTARRS),h,12/01.7771/2023,158.0155,314.8378,211.4667,1.001589,7.760027,2000,6.0,4.0
# From MPEC 2021-N06
C/2021 A10 (NEOWISE),e,151.9465,188.7165,82.3976,87.37419,0.0012068,0.98554810,0.0000,03/14.9579/2021,2000,g 19.0,4.0
# From MPEC 2022-L66
C/2021 B2 (PANSTARRS),e,38.0843,120.5064,334.9917,367.8620,0.0001397,0.99317240,0.0000,05/04.4486/2021,2000,g 14.0,4.0
# From MPEC 2021-N06
C/2021 B3 (NEOWISE),e,119.4783,67.2805,293.5317,34.37556,0.0048902,0.93712748,4.5070,09/18.0/2023,2000,g 13.5,4.0
# From MPEC 2023-KD6
C/2021 C1 (Rankin),e,143.0444,186.8931,336.2048,5601,0.0000024,0.99937934,0.0000,12/06.8239/2020,2000,g 11.5,4.0
# From MPEC 2021-U31
P/2021 C2 (PANSTARRS),e,21.9380,66.4579,78.7061,9.534650,0.0334770,0.48750141,31.3501,09/18.0/2023,2000,g 12.0,4.0
# From MPEC 2021-N06
C/2021 C3 (Catalina),e,122.1666,181.9214,357.0534,61.56803,0.0020402,0.96306788,1.9340,09/18.0/2023,2000,g 14.0,4.0
# From MPEC 2022-M88
C/2021 C4 (ATLAS),e,132.8526,194.2761,320.1722,47990,0.0000001,0.99990623,0.0000,01/16.9631/2021,2000,g  9.0,4.0
# From MPEC 2023-R20
C/2021 C5 (PANSTARRS),e,50.7833,323.6781,270.9226,2064,0.0000105,0.99842954,0.0000,02/11.0574/2023,2000,g  9.0,4.0
# From MPEC 2022-YB4
C/2021 C6 (Lemmon),h,11/13.1316/2021,164.6137,332.2801,203.7794,1.000530,3.277460,2000,12.0,4.0
# From MPEC 2022-F14
C/2021 D1 (SWAN),e,31.4133,311.2161,72.3217,100.8552,0.0009731,0.99104803,0.0000,02/27.7794/2021,2000,g 13.0,4.0
# From MPEC 2023-J29
C/2021 D2 (ZTF),h,02/03.9705/2022,83.8074,305.6726,125.0262,1.001670,2.946228,2000,9.0,4.0
# From MPEC 2022-UY9
A/2021 E2,e,167.4885,190.8159,342.3561,220.5688,0.0003009,0.98964592,0.0000,12/10.2818/2020,2000,g 15.0,2.0
# From MPEC 2023-J29
C/2021 E3 (ZTF),h,06/11.8793/2022,112.5432,104.4795,228.8457,1.000772,1.777266,2000,8.5,4.0
# From MPEC 2023-R20
A/2021 E4,e,116.3613,171.1685,48.2618,565.0383,0.0000734,0.99172410,0.0000,04/25.1191/2022,2000,g 13.5,22.0
# From MPEC 2022-QD9
C/2021 F1 (Lemmon-PANSTARRS),e,107.3264,203.4531,146.8416,229.7117,0.0002831,0.99566278,0.0000,04/06.8036/2022,2000,g 13.5,4.0
# From MPEC 2021-J72
C/2021 G1 (Leonard),e,131.5466,270.6981,107.4467,73.50928,0.0015638,0.95342647,1.2326,09/18.0/2023,2000,g 14.0,4.0
# From MPEC 2023-OA6
C/2021 G2 (ATLAS),e,48.4749,221.0937,343.3109,10364,0.0000009,0.99951930,0.0000,09/09.4872/2024,2000,g  5.5,4.0
# From MPEC 2022-X67
C/2021 G3 (PANSTARRS),e,102.8719,147.3995,10.5892,54296,0.0000001,0.99990460,0.0000,10/18.0491/2021,2000,g 10.5,4.0
# From MPEC 2021-Y10
P/2021 HS (PANSTARRS),e,12.1598,262.3745,46.1308,4.194639,0.1147261,0.80973610,88.6691,09/18.0/2023,2000,g 22.0,4.0
# From MPEC 2022-C56
C/2021 J1 (Maury-Attard),e,92.7187,88.3827,147.3120,26.35938,0.0072828,0.93398167,6.8504,09/18.0/2023,2000,g 15.5,4.0
# From MPEC 2023-KD6
C/2021 J2 (PANSTARRS),e,156.2134,23.3361,171.9998,116.8658,0.0007801,0.95974775,0.5663,09/18.0/2023,2000,g 12.0,4.0
# From MPEC 2021-S45
P/2021 J3 (ATLAS),e,14.5291,111.1345,125.9623,8.924595,0.0369676,0.44905632,56.8460,09/18.0/2023,2000,g  7.0,4.0
# From MPEC 2022-O08
C/2021 K1 (ATLAS),e,16.2749,140.9085,184.2795,12.66243,0.0218740,0.80261218,18.9631,09/18.0/2023,2000,g 11.0,4.0
# From MPEC 2022-O01
C/2021 K2 (MASTER),h,09/09.4792/2021,100.8669,282.2600,343.3633,1.001102,5.467899,2000,8.0,4.0
# From MPEC 2022-L66
C/2021 K3 (Catalina),h,02/03.2267/2022,134.7868,114.4687,182.0627,1.003620,5.230090,2000,10.0,4.0
# From MPEC 2021-W31
P/2021 L2 (Leonard),e,21.0667,266.6561,51.5094,4.048874,0.1209770,0.52100674,95.0717,09/18.0/2023,2000,g 17.0,4.0
# From MPEC 2023-M14
C/2021 L3 (Borisov),h,02/14.3123/2022,78.5739,344.9834,91.6188,1.003921,8.458165,2000,10.1,4.0
# From MPEC 2022-TA0
P/2021 N1 (ZTF),e,11.4944,301.1589,21.2334,2.978259,0.1917611,0.67624438,159.8662,09/18.0/2023,2000,g 19.0,4.0
# From MPEC 2023-M14
P/2021 N2 (Fuls),e,13.0612,221.7321,177.4847,6.939918,0.0539104,0.45261807,36.2794,09/18.0/2023,2000,g 10.8,4.0
# From MPEC 2022-YB4
C/2021 N3 (PANSTARRS),e,26.7423,337.4946,304.7545,149.6389,0.0005384,0.96179152,0.6057,09/18.0/2023,2000,g  8.5,4.0
# From MPEC 2022-A21
C/2021 O1 (Nishimura),e,27.5907,41.6255,74.3773,2416,0.0000083,0.99967518,0.0000,08/14.0913/2021,2000,g 10.5,4.0
# From MPEC 2022-L66
C/2021 O3 (PANSTARRS),h,04/21.0617/2022,56.7947,189.0065,299.9575,1.000050,0.286712,2000,10.5,4.0
# From MPEC 2022-CN4
C/2021 P1 (PANSTARRS),e,51.6366,359.6788,40.4768,2676,0.0000071,0.99836526,0.0000,06/02.4683/2022,2000,g 11.0,4.0
# From MPEC 2023-R20
C/2021 P2 (PANSTARRS),e,150.0636,32.0797,76.7064,3079,0.0000058,0.99835339,0.0000,01/22.8486/2023,2000,g  9.0,4.0
# From MPEC 2021-W31
P/2021 P3 (PANSTARRS),e,27.1616,358.2398,334.0959,4.412422,0.1063380,0.33895459,89.4281,09/18.0/2023,2000,g 14.0,4.0
# From MPEC 2023-A50
C/2021 P4 (ATLAS),e,56.3132,348.0862,175.8020,303.6966,0.0001862,0.99644352,0.0000,07/30.3414/2022,2000,g  9.5,4.0
# From MPEC 2023-E68
P/2021 PE20 (ATLAS),e,20.0060,99.6301,210.4708,3.745851,0.1359497,0.67020415,113.2673,09/18.0/2023,2000,g 17.0,4.0
# From MPEC 2023-FK0
C/2021 Q3 (ATLAS),e,77.7540,307.9145,114.1058,75.70877,0.0014962,0.93124967,0.8973,09/18.0/2023,2000,g  8.0,4.0
# From MPEC 2023-R20
C/2021 Q4 (Fuls),h,06/10.9201/2023,71.4760,183.3314,147.0309,1.003132,7.564766,2000,6.0,4.0
# From MPEC 2022-C56
P/2021 Q5 (ATLAS),e,10.7403,239.7462,180.9306,3.286698,0.1654110,0.62461350,123.7792,09/18.0/2023,2000,g 15.0,4.0
# From MPEC 2023-R20
C/2021 Q6 (PANSTARRS),h,03/24.5001/2024,161.8469,133.5366,140.9916,1.000119,8.708059,2000,6.0,4.0
# From MPEC 2023-FK0
C/2021 QM45 (PANSTARRS),e,22.8208,354.5924,72.8314,373.6857,0.0001364,0.99257726,0.0000,08/13.5476/2022,2000,g 11.0,4.0
# From MPEC 2022-X67
P/2021 R1 (PANSTARRS),e,5.5194,143.3049,220.3159,8.323367,0.0410446,0.41298121,26.3161,09/18.0/2023,2000,g 11.0,4.0
# From MPEC 2022-X67
C/2021 R2 (PANSTARRS),e,134.4822,16.2983,32.4654,2904,0.0000063,0.99748146,0.0000,12/27.2098/2021,2000,g  7.5,4.0
# From MPEC 2021-W31
P/2021 R3 (PANSTARRS),e,19.9301,304.1979,2.7536,3.771873,0.1345453,0.33104566,113.7173,09/18.0/2023,2000,g 16.0,4.0
# From MPEC 2021-W31
P/2021 R4 (Wierzchos),e,21.0320,321.2630,56.7100,5.623428,0.0739099,0.58599857,52.0264,09/18.0/2023,2000,g 16.0,4.0
# From MPEC 2022-Y15
P/2021 R5 (Rankin),e,7.8545,219.9546,167.4766,4.794491,0.0938837,0.30664671,57.5906,09/18.0/2023,2000,g 12.0,4.0
# From MPEC 2021-W31
P/2021 R6 (Groeller),e,34.9235,176.1187,220.8160,6.282492,0.0625902,0.59347851,42.9267,09/18.0/2023,2000,g 14.5,4.0
# From MPEC 2022-X67
C/2021 R7 (PANSTARRS),e,158.8569,170.1563,140.2841,859.5912,0.0000391,0.99342635,0.0000,04/16.5054/2021,2000,g 10.5,4.0
# From MPEC 2021-Y10
P/2021 R8 (Sheppard),e,2.2034,167.0264,190.8570,3.018266,0.1879610,0.29333800,133.5457,09/18.0/2023,2000,g 18.5,4.0
# From MPEC 2023-J29
C/2021 S1 (ATLAS),h,03/01.2336/2022,52.0649,299.8761,148.2068,1.002246,6.119682,2000,7.0,4.0
# From MPEC 2023-R20
C/2021 S3 (PANSTARRS),h,02/14.7175/2024,58.5335,215.6208,6.8621,1.000193,1.320133,2000,5.5,4.0
# From MPEC 2023-R20
C/2021 S4 (Tsuchinshan),e,17.4791,5.4920,72.8583,164.7068,0.0004663,0.95938590,359.9505,09/18.0/2023,2000,g  6.5,4.0
# From MPEC 2022-OB6
C/2021 T1 (Lemmon),e,140.3579,56.8257,51.5558,1462,0.0000176,0.99790647,0.0000,10/14.1860/2021,2000,g 12.5,4.0
# From MPEC 2023-A50
C/2021 T2 (Fuls),h,06/07.9482/2022,117.5399,223.2346,263.5988,1.000428,1.247531,2000,12.0,4.0
# From MPEC 2023-R20
C/2021 T4 (Lemmon),e,160.7771,257.8846,329.8223,12666,0.0000007,0.99988289,0.0000,07/31.5392/2023,2000,g  7.5,4.0
# From MPEC 2022-ED3
P/2021 U1 (Wierzchos),e,30.5531,246.7654,145.1457,8.526573,0.0395861,0.71300450,28.3774,09/18.0/2023,2000,g 14.5,4.0
# From MPEC 2022-L66
P/2021 U3 (Attard-Maury),e,69.9619,75.0873,335.2591,4.193318,0.1147803,0.54980340,79.5564,09/18.0/2023,2000,g 15.5,4.0
# From MPEC 2021-W31
C/2021 U4 (Leonard),e,152.8858,241.8085,237.3159,44.97116,0.0032682,0.96022680,2.0754,09/18.0/2023,2000,g 17.0,4.0
# From MPEC 2022-WQ9
C/2021 U5 (Catalina),e,39.0486,182.7499,321.4309,216.4409,0.0003095,0.98908842,0.0000,01/26.5891/2022,2000,g 13.0,4.0
# From MPEC 2022-CN4
C/2021 V1 (Rankin),e,71.4541,207.6525,195.1484,623.2120,0.0000634,0.99516286,0.0000,04/30.4812/2022,2000,g 13.0,4.0
# From MPEC 2023-KD6
P/2021 V2 (Fuls),e,12.6945,232.2775,259.8359,9.066236,0.0361047,0.61433161,8.6495,09/18.0/2023,2000,g 10.0,4.0
# From MPEC 2023-R20
C/2021 X1 (Maury-Attard),h,05/27.2015/2023,140.1025,10.5930,334.5720,1.000938,3.233396,2000,7.0,4.0
# From MPEC 2023-A50
A/2021 X2,h,07/08.0420/2022,137.1614,228.8216,193.2882,1.000738,2.994679,2000,16.0,2.0
# From MPEC 2023-N01
C/2021 Y1 (ATLAS),h,04/30.7180/2023,77.1913,244.7690,245.8227,1.000907,2.032425,2000,7.0,4.0
# From MPEC 2022-YN2
C/2022 A1 (Sarneczky),e,116.5169,285.5191,201.2268,348.0230,0.0001518,0.99639866,0.0000,01/31.0918/2022,2000,g 18.0,4.0
# From MPEC 2023-R20
C/2022 A2 (PANSTARRS),h,02/18.2755/2023,108.1383,171.5834,88.3732,1.000488,1.735390,2000,9.5,4.0
# From MPEC 2023-M14
C/2022 A3 (Lemmon-ATLAS),e,88.3429,325.4799,234.8477,884.0375,0.0000375,0.99581074,0.0000,09/28.8513/2023,2000,g 10.9,4.0
# From MPEC 2022-K19
P/2022 B1 (Wierzchos),e,10.9898,148.8345,325.4720,5.466364,0.0771181,0.65320583,43.9260,09/18.0/2023,2000,g 16.5,4.0
# From MPEC 2022-YB4
A/2022 B3,e,132.0517,286.1836,150.6907,801.9153,0.0000434,0.99538708,0.0000,01/17.4576/2022,2000,g 16.5,2.0
# From MPEC 2022-GA9
C/2022 B4 (Bok),e,20.0441,340.6361,152.9346,379.3557,0.0001334,0.99636701,0.0000,01/29.9404/2022,2000,g 21.0,4.0
# From MPEC 2023-J29
P/2022 BV9 (Lemmon),e,11.9323,337.3049,16.2723,4.361911,0.1081904,0.23460474,114.5710,09/18.0/2023,2000,g  9.5,4.0
# From MPEC 2023-J29
P/2022 C1 (PANSTARRS),e,4.7622,113.1302,9.3382,7.223993,0.0507619,0.44843464,34.6503,09/18.0/2023,2000,g 12.0,4.0
# From MPEC 2022-OB6
